GLOBALSTAR M067         
1 32263U 07048A   25335.28253949 -.00000091  00000+0  45062-4 0  9996
2 32263  51.9731 266.9926 0001500   7.5025 158.4987 12.40681973830227
GLOBALSTAR M079         
1 37188U 10054A   25335.34396353 -.00000093  00000+0  59959-4 0  9994
2 37188  52.0057 350.9346 0000113   2.0357 102.8709 12.62268786697568
GLOBALSTAR M074         
1 37189U 10054B   25335.45894028 -.00000082  00000+0  12075-3 0  9994
2 37189  52.0034 349.8808 0000377  64.7379  82.7985 12.62263801698189
GLOBALSTAR M076         
1 37190U 10054C   25335.29813681 -.00000088  00000+0  86000-4 0  9990
2 37190  52.0050 350.5582 0000350  35.0015 340.1518 12.62267676697889
GLOBALSTAR M077         
1 37191U 10054D   25335.38197250 -.00000076  00000+0  83286-4 0  9998
2 37191  52.0116 321.8750 0017653 312.0372 200.7517 11.82670138698017
